NORAD_CAT_ID,OBJECT_NAME,OBJECT_TYPE,EPOCH,MEAN_MOTION,ECCENTRICITY,INCLINATION,RA_OF_ASC_NODE,ARG_OF_PERICENTER,MEAN_ANOMALY,BSTAR,MEAN_MOTION_DOT,MEAN_MOTION_DDOT,TLE_LINE0,TLE_LINE1,TLE_LINE2,SEMIMAJOR_AXIS,PERIOD,APOGEE,PERIGEE,DECAYED
52370.0,STARLINK-3827,PAYLOAD,2023-08-27 09:33:04,15.0883965,0.000151,53.2195,22.9315,72.4144,287.7013,0.00013743,1.9e-05,0.0,0 STARLINK-3827,1 52370U 22045AR  23239.39796635  .00001900  00000-0  13743-3 0  9998,2 52370  53.2195  22.9315 0001510  72.4144 287.7013 15.08839650 76236,6917.881,95.438,540.791,538.702,0.0
52370.0,STARLINK-3827,PAYLOAD,2023-08-27 15:54:36,15.08843617,0.000159,53.2199,21.7419,72.8514,287.2653,6.2272e-05,7.03e-06,0.0,0 STARLINK-3827,1 52370U 22045AR  23239.66292600  .00000703  00000-0  62272-4 0  9993,2 52370  53.2199  21.7419 0001590  72.8514 287.2653 15.08843617 76272,6917.869,95.437,540.834,538.634,0.0
52370.0,STARLINK-3827,PAYLOAD,2023-08-28 18:56:09,15.0885036,0.0001235,53.2185,16.6834,92.4293,267.6841,6.9022e-05,8.11e-06,0.0,0 STARLINK-3827,1 52370U 22045AR  23240.78899762  .00000811  00000-0  69022-4 0  9990,2 52370  53.2185  16.6834 0001235  92.4293 267.6841 15.08850360 76442,6917.849,95.437,540.568,538.859,0.0
52370.0,STARLINK-3827,PAYLOAD,2023-08-29 09:14:38,15.08837715,0.0001266,53.2173,14.007,91.8815,268.2322,8.8158e-06,-1.48e-06,0.0,0 STARLINK-3827,1 52370U 22045AR  23241.38516703 -.00000148  00000-0  88158-5 0  9994,2 52370  53.2173  14.0070 0001266  91.8815 268.2322 15.08837715 76530,6917.887,95.438,540.628,538.877,0.0
52370.0,STARLINK-3827,PAYLOAD,2023-08-29 15:36:10,15.08841511,0.0001331,53.2187,12.8182,99.9154,260.1988,4.2484e-05,3.88e-06,0.0,0 STARLINK-3827,1 52370U 22045AR  23241.65012352  .00000388  00000-0  42484-4 0  9991,2 52370  53.2187  12.8182 0001331  99.9154 260.1988 15.08841511 76575,6917.876,95.437,540.662,538.82,0.0
52370.0,STARLINK-3827,PAYLOAD,2023-08-30 13:51:34,15.08836528,0.0001287,53.2182,8.6542,95.9606,264.1532,5.2864e-05,5.53e-06,0.0,0 STARLINK-3827,1 52370U 22045AR  23242.57748789  .00000553  00000-0  52864-4 0  9990,2 52370  53.2182   8.6542 0001287  95.9606 264.1532 15.08836528 76718,6917.891,95.438,540.646,538.866,0.0
52370.0,STARLINK-3827,PAYLOAD,2023-08-31 10:31:36,15.08833523,0.0001248,53.2184,4.7889,95.0925,265.021,7.9169e-06,-1.62e-06,0.0,0 STARLINK-3827,1 52370U 22045AR  23243.43861326 -.00000162  00000-0  79169-5 0  9994,2 52370  53.2184   4.7889 0001248  95.0925 265.0210 15.08833523 76842,6917.9,95.438,540.629,538.902,0.0
52370.0,STARLINK-3827,PAYLOAD,2023-09-01 00:50:04,15.08839647,0.0001232,53.2183,2.1132,92.7059,267.4074,8.4953e-05,1.064e-05,0.0,0 STARLINK-3827,1 52370U 22045AR  23244.03476856  .00001064  00000-0  84953-4 0  9998,2 52370  53.2183   2.1132 0001232  92.7059 267.4074 15.08839647 76936,6917.881,95.438,540.599,538.894,0.0
52370.0,STARLINK-3827,PAYLOAD,2023-09-01 10:22:22,15.08851775,0.0001326,53.217,0.3298,95.1078,265.0066,-0.00011995,-2.197e-05,0.0,0 STARLINK-3827,1 52370U 22045AR  23244.43221047 -.00002197  00000-0 -11995-3 0  9997,2 52370  53.2170   0.3298 0001326  95.1078 265.0066 15.08851775 76994,6917.844,95.437,540.627,538.792,0.0
52370.0,STARLINK-3827,PAYLOAD,2023-09-02 13:23:56,15.08839031,0.0001279,53.2168,355.2755,88.2681,271.8458,5.1618e-05,5.34e-06,0.0,0 STARLINK-3827,1 52370U 22045AR  23245.55829211  .00000534  00000-0  51618-4 0  9996,2 52370  53.2168 355.2755 0001279  88.2681 271.8458 15.08839031 77162,6917.883,95.438,540.633,538.864,0.0
52370.0,STARLINK-3827,PAYLOAD,2023-09-02 16:34:42,15.08846209,0.0001314,53.2179,354.6789,85.9172,274.197,0.00010285,1.35e-05,0.0,0 STARLINK-3827,1 52370U 22045AR  23245.69076676  .00001350  00000-0  10285-3 0  9991,2 52370  53.2179 354.6789 0001314  85.9172 274.1970 15.08846209 77185,6917.861,95.437,540.635,538.817,0.0
52370.0,STARLINK-3827,PAYLOAD,2023-09-03 13:14:42,15.08847901,0.0001182,53.2174,350.8146,86.7021,273.4106,0.00013654,1.886e-05,0.0,0 STARLINK-3827,1 52370U 22045AR  23246.55188235  .00001886  00000-0  13654-3 0  9999,2 52370  53.2174 350.8146 0001182  86.7021 273.4106 15.08847901 77318,6917.856,95.437,540.539,538.904,0.0
52370.0,STARLINK-3827,PAYLOAD,2023-09-04 00:22:24,15.08819807,0.0001069,53.2174,348.7338,85.7684,274.343,0.0004328,6.603e-05,0.0,0 STARLINK-3827,1 52370U 22045AR  23247.01556702  .00006603  00000-0  43280-3 0  9999,2 52370  53.2174 348.7338 0001069  85.7684 274.3430 15.08819807 77386,6917.942,95.439,540.547,539.068,0.0
52370.0,STARLINK-3827,PAYLOAD,2023-09-04 13:05:31,15.08822491,0.0001114,53.2176,346.3542,90.075,270.037,-2.2222e-05,-6.41e-06,0.0,0 STARLINK-3827,1 52370U 22045AR  23247.54550367 -.00000641  00000-0 -22222-4 0  9990,2 52370  53.2176 346.3542 0001114  90.0750 270.0370 15.08822491 77461,6917.934,95.439,540.57,539.028,0.0
52370.0,STARLINK-3827,PAYLOAD,2023-09-05 09:45:31,15.08840173,0.0001105,53.2173,342.4871,97.5448,262.5669,6.7999e-05,7.95e-06,0.0,0 STARLINK-3827,1 52370U 22045AR  23248.40661206  .00000795  00000-0  67999-4 0  9999,2 52370  53.2173 342.4871 0001105  97.5448 262.5669 15.08840173 77594,6917.88,95.438,540.509,538.98,0.0
52370.0,STARLINK-3827,PAYLOAD,2023-09-06 09:36:18,15.08839674,0.0001284,53.2177,338.0272,99.0135,261.1003,0.00029808,4.459e-05,0.0,0 STARLINK-3827,1 52370U 22045AR  23249.40021127  .00004459  00000-0  29808-3 0  9999,2 52370  53.2177 338.0272 0001284  99.0135 261.1003 15.08839674 77740,6917.881,95.438,540.635,538.858,0.0
52370.0,STARLINK-3827,PAYLOAD,2023-09-07 09:27:05,15.08845394,0.0001411,53.2177,333.5649,109.1877,250.9267,-2.477e-05,-6.82e-06,0.0,0 STARLINK-3827,1 52370U 22045AR  23250.39381592 -.00000682  00000-0 -24770-4 0  9994,2 52370  53.2177 333.5649 0001411 109.1877 250.9267 15.08845394 77896,6917.864,95.437,540.705,538.753,0.0
52370.0,STARLINK-3827,PAYLOAD,2023-09-07 15:48:38,15.08844749,0.0001218,53.2175,332.3771,103.7194,256.3934,-1.6184e-05,-5.45e-06,0.0,0 STARLINK-3827,1 52370U 22045AR  23250.65877448 -.00000545  00000-0 -16184-4 0  9991,2 52370  53.2175 332.3771 0001218 103.7194 256.3934 15.08844749 77933,6917.866,95.437,540.573,538.888,0.0
52370.0,STARLINK-3827,PAYLOAD,2023-09-08 10:53:15,15.08840409,0.0001463,53.2178,328.8084,86.2382,273.8777,9.0224e-05,1.148e-05,0.0,0 STARLINK-3827,1 52370U 22045AR  23251.45365658  .00001148  00000-0  90224-4 0  9990,2 52370  53.2178 328.8084 0001463  86.2382 273.8777 15.08840409 78051,6917.879,95.438,540.756,538.732,0.0
52370.0,STARLINK-3827,PAYLOAD,2023-09-08 20:25:34,15.08841189,0.0001423,53.2176,327.025,82.8861,277.2293,9.0872e-05,1.159e-05,0.0,0 STARLINK-3827,1 52370U 22045AR  23251.85109638  .00001159  00000-0  90872-4 0  9999,2 52370  53.2176 327.0250 0001423  82.8861 277.2293 15.08841189 78119,6917.877,95.437,540.726,538.757,0.0
52370.0,STARLINK-3827,PAYLOAD,2023-09-08 23:36:22,15.08827013,0.0001131,53.2181,326.4305,81.0891,279.023,-3.0751e-05,-7.77e-06,0.0,0 STARLINK-3827,1 52370U 22045AR  23251.98358829 -.00000777  00000-0 -30751-4 0  9998,2 52370  53.2181 326.4305 0001131  81.0891 279.0230 15.08827013 78132,6917.92,95.438,540.568,539.003,0.0
52370.0,STARLINK-3827,PAYLOAD,2023-09-09 10:44:03,15.08835929,0.0001391,53.2174,324.3506,68.9951,291.119,2.8296e-05,1.62e-06,0.0,0 STARLINK-3827,1 52370U 22045AR  23252.44726397  .00000162  00000-0  28296-4 0  9996,2 52370  53.2174 324.3506 0001391  68.9951 291.1190 15.08835929 78206,6917.893,95.438,540.72,538.796,0.0
52370.0,STARLINK-3827,PAYLOAD,2023-09-09 12:19:26,15.08839961,0.000132,53.2174,324.0529,70.2032,289.9103,6.9766e-05,8.23e-06,0.0,0 STARLINK-3827,1 52370U 22045AR  23252.51350075  .00000823  00000-0  69766-4 0  9991,2 52370  53.2174 324.0529 0001320  70.2032 289.9103 15.08839961 78216,6917.881,95.438,540.659,538.832,0.0
52370.0,STARLINK-3827,PAYLOAD,2023-09-10 10:34:49,15.08849586,0.0001332,53.2168,319.8889,85.2979,274.8166,0.00020011,2.899e-05,0.0,0 STARLINK-3827,1 52370U 22045AR  23253.44085496  .00002899  00000-0  20011-3 0  9990,2 52370  53.2168 319.8889 0001332  85.2979 274.8166 15.08849586 78350,6917.851,95.437,540.638,538.795,0.0
52370.0,STARLINK-3827,PAYLOAD,2023-09-10 12:10:13,15.0884946,0.0001313,53.2165,319.5915,85.2692,274.845,0.00027143,4.036e-05,0.0,0 STARLINK-3827,1 52370U 22045AR  23253.50709536  .00004036  00000-0  27143-3 0  9993,2 52370  53.2165 319.5915 0001313  85.2692 274.8450 15.08849460 78363,6917.851,95.437,540.625,538.808,0.0
52370.0,STARLINK-3827,PAYLOAD,2023-09-10 23:17:55,15.08839809,0.0001442,53.2163,317.5105,75.9047,284.2105,0.00018001,2.578e-05,0.0,0 STARLINK-3827,1 52370U 22045AR  23253.97078021  .00002578  00000-0  18001-3 0  9994,2 52370  53.2163 317.5105 0001442  75.9047 284.2105 15.08839809 78439,6917.881,95.438,540.744,538.748,0.0
52370.0,STARLINK-3827,PAYLOAD,2023-09-11 10:25:37,15.08836517,0.0001467,53.2164,315.4288,79.4335,280.6822,8.1549e-05,1.01e-05,0.0,0 STARLINK-3827,1 52370U 22045AR  23254.43446369  .00001010  00000-0  81549-4 0  9998,2 52370  53.2164 315.4288 0001467  79.4335 280.6822 15.08836517 78502,6917.891,95.438,540.771,538.741,0.0
52370.0,STARLINK-3827,PAYLOAD,2023-09-12 10:16:24,15.08849182,0.0001491,53.2161,310.9684,75.5698,284.5459,0.0001809,2.593e-05,0.0,0 STARLINK-3827,1 52370U 22045AR  23255.42805690  .00002593  00000-0  18090-3 0  9991,2 52370  53.2161 310.9684 0001491  75.5698 284.5459 15.08849182 78652,6917.852,95.437,540.749,538.686,0.0
52370.0,STARLINK-3827,PAYLOAD,2023-09-12 22:59:30,15.08827206,0.0001504,53.2158,308.5896,87.4145,272.7019,0.00095387,0.0001492,0.0,0 STARLINK-3827,1 52370U 22045AR  23255.95799137  .00014920  00000-0  95387-3 0  9998,2 52370  53.2158 308.5896 0001504  87.4145 272.7019 15.08827206 78733,6917.919,95.438,540.825,538.744,0.0
52370.0,STARLINK-3827,PAYLOAD,2023-09-13 10:07:11,15.08848023,0.0001605,53.2161,306.5089,77.3564,282.7607,0.00022308,3.265e-05,0.0,0 STARLINK-3827,1 52370U 22045AR  23256.42165588  .00003265  00000-0  22308-3 0  9991,2 52370  53.2161 306.5089 0001605  77.3564 282.7607 15.08848023 78806,6917.856,95.437,540.831,538.611,0.0
